{
    "links": {
        "self": "http://www.neowsapp.com/rest/v1/neo/3842771?api_key=iIulBulltgU6a56xZRHN4H3l9WmuAYTsLGpBGhQ2"
    },
    "id": "3842771",
    "neo_reference_id": "3842771",
    "name": "(2019 LT1)",
    "designation": "2019 LT1",
    "nasa_jpl_url": "http://ssd.jpl.nasa.gov/sbdb.cgi?sstr=3842771",
    "absolute_magnitude_h": 26.4,
    "estimated_diameter": {
        "kilometers": {
            "estimated_diameter_min": 0.0139493823,
            "estimated_diameter_max": 0.0311917671
        },
        "meters": {
            "estimated_diameter_min": 13.9493822934,
            "estimated_diameter_max": 31.1917670523
        },
        "miles": {
            "estimated_diameter_min": 0.0086677416,
            "estimated_diameter_max": 0.0193816595
        },
        "feet": {
            "estimated_diameter_min": 45.7656914036,
            "estimated_diameter_max": 102.3351970157
        }
    },
    "is_potentially_hazardous_asteroid": false,
    "close_approach_data": [
        {
            "close_approach_date": "2019-05-30",
            "close_approach_date_full": "2019-May-30 02:33",
            "epoch_date_close_approach": 1559183580000,
            "relative_velocity": {
                "kilometers_per_second": "8.5163967789",
                "kilometers_per_hour": "30659.0284040859",
                "miles_per_hour": "19050.32795475"
            },
            "miss_distance": {
                "astronomical": "0.0245102535",
                "lunar": "9.5344886115",
                "kilometers": "3666681.716760045",
                "miles": "2278370.369356821"
            },
            "orbiting_body": "Earth"
        }
    ],
    "orbital_data": {
        "orbit_id": "2",
        "orbit_determination_date": "2019-07-27 14:02:16",
        "first_observation_date": "2019-06-02",
        "last_observation_date": "2019-06-05",
        "data_arc_in_days": 3,
        "observations_used": 37,
        "orbit_uncertainty": "7",
        "minimum_orbit_intersection": ".0190667",
        "jupiter_tisserand_invariant": "4.038",
        "epoch_osculation": "2459000.5",
        "eccentricity": ".4353758574589701",
        "semi_major_axis": "1.731844255489281",
        "inclination": "5.93509074630125",
        "ascending_node_longitude": "73.87742868925962",
        "orbital_period": "832.4567458158127",
        "perihelion_distance": ".9778410777702434",
        "perihelion_argument": "139.76547400",
        "aphelion_distance": "2.485847433208318",
        "perihelion_time": "2458604.958429837878",
        "mean_anomaly": "171.0538907565895",
        "mean_motion": ".4324549014822359",
        "equinox": "J2000",
        "orbit_class": {
            "orbit_class_type": "APO",
            "orbit_class_description": "Near-Earth asteroid orbits which cross the Earth’s orbit similar to that of 1862 Apollo",
            "orbit_class_range": "a (semi-major axis) > 1.0 AU; q (perihelion) < 1.017 AU"
        }
    },
    "is_sentry_object": false
}